PROGRESS-MS 32          
1 65586U 25204A   25336.09225230  .00009217  00000+0  17381-3 0  9996
2 65586  51.6314 195.1903 0003638 193.8265 166.2625 15.49237019   272
CYGNUS NG-23            
1 65616U 25208A   25336.09225230  .00009217  00000+0  17381-3 0  9994
2 65616  51.6314 195.1903 0003638 193.8265 166.2625 15.49237019   221
DRAGONFLY               
1 65729U 98067XH  25336.80835911  .00149213  00000+0  12965-2 0  9997
2 65729  51.6253 186.4705 0006468 216.4679 143.5877 15.68060646 11608
1998-067XJ              
1 65730U 98067XJ  25336.82362580  .06330363  11931-4  22859-2 0  9995
2 65730  51.6061 180.4655 0010115 256.3912 103.5981 16.23931094 11688
1998-067XK              
1 65731U 98067XK  25336.83375117  .00093205  00000+0  98553-3 0  9997
2 65731  51.6285 187.4006 0005863 188.3266 171.7632 15.63382318 11596
RSP-03                  
1 65732U 98067XL  25336.85465471  .00120540  00000+0  11616-2 0  9990
2 65732  51.6273 186.7826 0006827 191.7215 168.3622 15.65600923 11610
GHS-01                  
1 65733U 98067XM  25336.83887637  .00180652  00000+0  14391-2 0  9994
2 65733  51.6280 185.9293 0006994 215.3541 144.6993 15.70056093 11626
BOTAN                   
1 65942U 98067XP  25335.96627064  .00095633  00000+0  11467-2 0  9990
2 65942  51.6290 193.6047 0004542 166.4057 193.7060 15.60127991  8189
HRC MONOBLOCK CAMERA    
1 66052U 98067XR  25336.80987222  .00039695  00000+0  62502-3 0  9995
2 66052  51.6293 190.9830 0004432 144.6428 215.4856 15.53170703  7290
HTV-X1                  
1 66174U 25241A   25336.09225230  .00009217  00000+0  17381-3 0  9991
2 66174  51.6314 195.1903 0003638 193.8265 166.2625 15.49237019   513
